OBJECT_NAME,OBJECT_ID,EPOCH,MEAN_MOTION,ECCENTRICITY,INCLINATION,RA_OF_ASC_NODE,ARG_OF_PERICENTER,MEAN_ANOMALY,EPHEMERIS_TYPE,CLASSIFICATION_TYPE,NORAD_CAT_ID,ELEMENT_SET_NO,REV_AT_EPOCH,BSTAR,MEAN_MOTION_DOT,MEAN_MOTION_DDOT
STAR ONE D2,2021-069A,2026-06-07T07:57:32.984928,1.00269082,.00018093,0.0130,339.5261,120.3612,205.1400,0,U,49055,999,1784,0,0,0
EUTELSAT QUANTUM,2021-069B,2026-06-08T11:53:51.192960,1.00272295,.0002332,0.0098,352.7639,80.8657,49.4204,0,U,49056,999,1784,0,.142E-5,0
ZHONGXING-2E,2021-071A,2026-06-08T12:08:12.315840,1.00273866,.0001757,0.0445,242.5295,238.6772,55.7973,0,U,49062,999,1795,0,-.276E-5,0
TJS-7,2021-077A,2026-06-08T11:11:52.738368,1.00271126,.0002458,0.4855,86.1792,335.4016,263.7895,0,U,49115,999,946,0,-.108E-5,0
CHINASAT 9B,2021-080A,2026-06-08T12:09:12.221280,1.00273188,.0001532,0.0319,93.6773,7.6462,79.2951,0,U,49125,999,1756,0,-.297E-5,0
SES-17,2021-095A,2026-06-08T10:56:54.549024,1.00270062,.0001022,0.0252,34.2580,46.0364,273.6816,0,U,49332,999,1776,0,-.256E-5,0
SYRACUSE 4A,2021-095B,2026-06-07T11:55:58.548288,1.00271065,.00013368,0.0169,340.7258,92.1867,47.4841,0,U,49333,999,1785,0,.15E-5,0
QZS-1R (MICHIBIKI-1R),2021-096A,2026-06-07T15:44:18.159936,1.00259216,.07542754,37.4420,79.7260,271.5943,275.3757,0,U,49336,999,1691,0,-.231E-5,0
ZHONGXING-1D,2021-114A,2026-06-08T13:45:19.126656,1.00274020,.0000203,0.0385,243.7995,317.5302,32.1517,0,U,49505,999,1673,0,-.32E-5,0
STPSAT-6,2021-118A,2026-06-08T09:25:46.362144,1.00273463,.0001402,0.2970,85.5058,256.1428,304.8941,0,U,49817,999,1648,0,-.3E-6,0
EXPRESS AMU-7,2021-123A,2026-06-08T12:21:41.770656,1.00272471,.0000595,0.0148,283.5290,65.0894,238.7129,0,U,50001,999,1645,0,-.226E-5,0
EXPRESS AMU-3,2021-123B,2026-06-08T00:02:29.090112,1.00269595,.0000424,0.0161,304.5274,62.7066,352.7755,0,U,50002,999,693,0,-.306E-5,0
TIANLIAN 2-02,2021-124A,2026-06-08T05:38:20.847264,1.00272697,.0001142,0.7775,86.2654,219.8915,206.0380,0,U,50005,999,1653,0,.2E-7,0
TURKSAT 5B,2021-126A,2026-06-07T10:12:12.838176,1.00271386,.00037557,0.0685,339.5286,18.2742,93.0890,0,U,50212,999,1620,0,.16E-5,0
INMARSAT 6-F1,2021-128A,2026-06-07T10:24:09.567648,1.00271525,.00001367,0.0128,290.5513,218.3765,346.7089,0,U,50319,999,1616,0,-.157E-5,0
TJS-9,2021-135A,2026-06-08T12:33:38.742912,1.00271968,.0004772,0.0576,255.2328,153.5144,173.7913,0,U,50574,999,1634,0,-.283E-5,0
USA 324,2022-006A,2026-06-06T02:06:38.886912,1.00289779,.000284,0.7690,83.2777,165.6787,110.1567,0,U,51280,999,1602,0,-.58E-6,0
GOES 18,2022-021A,2026-06-08T09:18:34.129728,1.00270309,.0000493,0.0385,138.9178,359.3563,121.1468,0,U,51850,999,650,0,.113E-5,0
ZHONGXING-6D,2022-038A,2026-06-07T22:34:24.523104,1.00269487,.0000194,0.0420,94.8340,269.3772,355.7976,0,U,52255,999,1533,0,-.339E-5,0
NILESAT 301,2022-061A,2026-06-08T08:13:00.810336,1.00271939,.0005442,0.0572,28.3728,15.4202,329.1934,0,U,52817,999,1464,0,-.42E-6,0
CMS-02 (GSAT-24),2022-067A,2026-06-08T12:03:57.724416,1.00270963,.0001748,0.0381,136.5961,235.6142,148.6792,0,U,52903,999,1452,0,-.149E-5,0
MEASAT 3D,2022-067B,2026-06-08T06:57:59.620032,1.00269912,.0001151,0.0284,5.5156,31.4459,55.7169,0,U,52904,999,1456,0,-.226E-5,0
SES-22,2022-071A,2026-06-08T11:00:38.814048,1.00273831,.0001173,0.0253,287.3926,142.6384,212.9955,0,U,52933,999,743,0,.12E-5,0
WFOV (USA 332),2022-073A,2026-06-08T07:06:19.674720,1.00271853,.0002138,3.6871,78.6409,243.9326,159.9598,0,U,52940,999,1428,0,-.347E-5,0
TIANLIAN 2-03,2022-078A,2026-06-08T08:18:00.332352,1.00271987,.0001584,0.6498,76.8559,318.9675,356.0033,0,U,53100,999,1445,0,.88E-6,0
SBIRS GEO-6 (USA 336),2022-092A,2026-06-08T05:05:51.542304,1.00271179,.0002019,3.2738,317.3290,116.8839,37.8722,0,U,53355,999,1414,0,-.279E-5,0
EUTELSAT KONNECT VHTS,2022-110A,2026-06-07T13:26:27.710880,1.00269852,.00027459,0.0649,103.3082,318.7368,38.2459,0,U,53765,999,674,0,.32E-6,0
ZHONGXING-1E,2022-112A,2026-06-08T12:03:27.772128,1.00270510,.0000252,0.0458,107.5112,234.3406,177.3129,0,U,53813,999,1376,0,-.133E-5,0
SES-20,2022-123A,2026-06-08T11:06:42.765408,1.00269579,.0001971,0.0345,77.3504,16.1824,226.9066,0,U,53960,999,1344,0,-.85E-6,0
