STAR ONE D2             
1 49055U 21069A   26158.33163177  .00000000  00000+0  00000+0 0  9992
2 49055   0.0130 339.5261 0001809 120.3612 205.1400  1.00269082 17841
EUTELSAT QUANTUM        
1 49056U 21069B   26159.49573140  .00000142  00000+0  00000+0 0  9993
2 49056   0.0098 352.7639 0002332  80.8657  49.4204  1.00272295 17843
ZHONGXING-2E            
1 49062U 21071A   26159.50569810 -.00000276  00000+0  00000+0 0  9993
2 49062   0.0445 242.5295 0001757 238.6772  55.7973  1.00273866 17951
TJS-7                   
1 49115U 21077A   26159.46658262 -.00000108  00000+0  00000+0 0  9997
2 49115   0.4855  86.1792 0002458 335.4016 263.7895  1.00271126  9467
CHINASAT 9B             
1 49125U 21080A   26159.50639145 -.00000297  00000+0  00000+0 0  9995
2 49125   0.0319  93.6773 0001532   7.6462  79.2951  1.00273188 17569
SES-17                  
1 49332U 21095A   26159.45618691 -.00000256  00000+0  00000+0 0  9993
2 49332   0.0252  34.2580 0001022  46.0364 273.6816  1.00270062 17764
SYRACUSE 4A             
1 49333U 21095B   26158.49720542  .00000150  00000+0  00000+0 0  9998
2 49333   0.0169 340.7258 0001336  92.1867  47.4841  1.00271065 17856
QZS-1R (MICHIBIKI-1R)   
1 49336U 21096A   26158.65576574 -.00000231  00000+0  00000+0 0  9995
2 49336  37.4420  79.7260 0754275 271.5943 275.3757  1.00259216 16918
ZHONGXING-1D            
1 49505U 21114A   26159.57313804 -.00000320  00000+0  00000+0 0  9990
2 49505   0.0385 243.7995 0000203 317.5302  32.1517  1.00274020 16738
STPSAT-6                
1 49817U 21118A   26159.39289771 -.00000030  00000+0  00000+0 0  9993
2 49817   0.2970  85.5058 0001402 256.1428 304.8941  1.00273463 16489
EXPRESS AMU-7           
1 50001U 21123A   26159.51506679 -.00000226  00000+0  00000+0 0  9996
2 50001   0.0148 283.5290 0000595  65.0894 238.7129  1.00272471 16453
EXPRESS AMU-3           
1 50002U 21123B   26159.00172558 -.00000306  00000+0  00000+0 0  9995
2 50002   0.0161 304.5274 0000424  62.7066 352.7755  1.00269595  6938
TIANLIAN 2-02           
1 50005U 21124A   26159.23496351  .00000002  00000+0  00000+0 0  9996
2 50005   0.7775  86.2654 0001142 219.8915 206.0380  1.00272697 16530
TURKSAT 5B              
1 50212U 21126A   26158.42514859  .00000160  00000+0  00000+0 0  9997
2 50212   0.0685 339.5286 0003755  18.2742  93.0890  1.00271386 16207
INMARSAT 6-F1           
1 50319U 21128A   26158.43344407 -.00000157  00000+0  00000+0 0  9995
2 50319   0.0128 290.5513 0000136 218.3765 346.7089  1.00271525 16162
TJS-9                   
1 50574U 21135A   26159.52336508 -.00000283  00000+0  00000+0 0  9990
2 50574   0.0576 255.2328 0004772 153.5144 173.7913  1.00271968 16340
USA 324                 
1 51280U 22006A   26157.08795008 -.00000058  00000+0  00000+0 0  9996
2 51280   0.7690  83.2777 0002840 165.6787 110.1567  1.00289779 16021
GOES 18                 
1 51850U 22021A   26159.38789502  .00000113  00000+0  00000+0 0  9994
2 51850   0.0385 138.9178 0000493 359.3563 121.1468  1.00270309  6500
ZHONGXING-6D            
1 52255U 22038A   26158.94056161 -.00000339  00000+0  00000+0 0  9992
2 52255   0.0420  94.8340 0000194 269.3772 355.7976  1.00269487 15336
NILESAT 301             
1 52817U 22061A   26159.34237049 -.00000042  00000+0  00000+0 0  9994
2 52817   0.0572  28.3728 0005442  15.4202 329.1934  1.00271939 14646
CMS-02 (GSAT-24)        
1 52903U 22067A   26159.50275144 -.00000149  00000+0  00000+0 0  9990
2 52903   0.0381 136.5961 0001748 235.6142 148.6792  1.00270963 14524
MEASAT 3D               
1 52904U 22067B   26159.29027338 -.00000226  00000+0  00000+0 0  9993
2 52904   0.0284   5.5156 0001151  31.4459  55.7169  1.00269912 14561
SES-22                  
1 52933U 22071A   26159.45878257  .00000120  00000+0  00000+0 0  9994
2 52933   0.0253 287.3926 0001173 142.6384 212.9955  1.00273831  7433
WFOV (USA 332)          
1 52940U 22073A   26159.29606105 -.00000347  00000+0  00000+0 0  9999
2 52940   3.6871  78.6409 0002138 243.9326 159.9598  1.00271853 14282
TIANLIAN 2-03           
1 53100U 22078A   26159.34583718  .00000088  00000+0  00000+0 0  9994
2 53100   0.6498  76.8559 0001584 318.9675 356.0033  1.00271987 14454
SBIRS GEO-6 (USA 336)   
1 53355U 22092A   26159.21240211 -.00000279  00000+0  00000+0 0  9999
2 53355   3.2738 317.3290 0002019 116.8839  37.8722  1.00271179 14146
EUTELSAT KONNECT VHTS   
1 53765U 22110A   26158.56004295  .00000032  00000+0  00000+0 0  9998
2 53765   0.0649 103.3082 0002745 318.7368  38.2459  1.00269852  6749
ZHONGXING-1E            
1 53813U 22112A   26159.50240477 -.00000133  00000+0  00000+0 0  9996
2 53813   0.0458 107.5112 0000252 234.3406 177.3129  1.00270510 13760
SES-20                  
1 53960U 22123A   26159.46299497 -.00000085  00000+0  00000+0 0  9998
2 53960   0.0345  77.3504 0001971  16.1824 226.9066  1.00269579 13445
